KINEIS-1B               
1 60079U 24114A   26199.00319294  .00000298  00000+0  45698-4 0  9993
2 60079  97.9828 223.0415 0002742  32.0271 328.1107 14.80669131111963
KINEIS-1C               
1 60081U 24114C   26198.90166780  .00000309  00000+0  47117-4 0  9995
2 60081  97.9842 222.7964 0002574  91.5042 268.6465 14.80670949111926
KINEIS-1D               
1 60082U 24114D   26198.94977780  .00000270  00000+0  46215-4 0  9995
2 60082  97.9879 218.7501 0002972  94.1176 266.0374 14.76364472111666
KINEIS-1E               
1 60083U 24114E   26198.98702492  .00000372  00000+0  55051-4 0  9997
2 60083  97.8944 221.9198 0004187 103.9476 256.2202 14.80696644111945
KINEIS-1A               
1 60084U 24114F   26198.95290963  .00000304  00000+0  46234-4 0  9998
2 60084  97.8918 221.9790 0005257  55.8103 304.3607 14.80684426111945
KINEIS-3C               
1 61220U 24172A   26198.79123469  .00000810  00000+0  13602-3 0  9997
2 61220  98.0435 288.3657 0002607  78.6745 281.4755 14.72294303 97578
KINEIS-3D               
1 61221U 24172B   26198.78451164  .00000458  00000+0  80373-4 0  9991
2 61221  98.0429 288.3693 0002386  79.0027 281.1449 14.72291407 97854
KINEIS-3E               
1 61222U 24172C   26198.56355750  .00000802  00000+0  13483-3 0  9992
2 61222  98.0429 288.1319 0001718  87.6653 272.4751 14.72280512 97827
KINEIS-3A               
1 61223U 24172D   26198.81879868  .00000816  00000+0  13692-3 0  9999
2 61223  98.0425 288.4825 0002008  37.0376 323.0969 14.72314359 97284
KINEIS-3B               
1 61224U 24172E   26198.80144961  .00000781  00000+0  13141-3 0  9998
2 61224  98.0420 288.4874 0001420  22.5405 337.5864 14.72300391 97851
KINEIS-5C               
1 62081U 24219A   26198.91455552  .00000288  00000+0  53258-4 0  9991
2 62081  97.9071 356.9182 0004370 165.1856 194.9480 14.72316574 88272
KINEIS-5D               
1 62082U 24219B   26198.87278441  .00000422  00000+0  74128-4 0  9996
2 62082  97.9183 356.9498 0005494 159.8586 200.2839 14.72496172 88277
KINEIS-5E               
1 62083U 24219C   26198.89096622  .00000268  00000+0  50062-4 0  9997
2 62083  97.9027 356.9880 0006969 156.6258 203.5268 14.72301003 88280
KINEIS-5A               
1 62084U 24219D   26198.86923432  .00000341  00000+0  61645-4 0  9994
2 62084  97.8969 357.2445 0003996 190.6599 169.4525 14.72267751 88286
KINEIS-5B               
1 62085U 24219E   26198.91126986  .00000495  00000+0  75144-4 0  9999
2 62085  98.0093   2.5724 0002655 140.0869 220.0538 14.78388575 88549
KINEIS-2C               
1 62929U 25028B   26198.60915473  .00000675  00000+0  11195-3 0  9993
2 62929  98.1229 253.0350 0004428 153.0544 207.0894 14.73432814 77099
