{"fetched_at":"2026-07-18T06:28:15.748Z","source":"https://celestrak.org/NORAD/elements/gp.php?NAME=KINEIS&FORMAT=JSON","constellation":"kineis","records":[{"OBJECT_NAME":"KINEIS-1B","OBJECT_ID":"2024-114A","EPOCH":"2026-07-18T00:04:35.870016","CLASSIFICATION_TYPE":"U","MEAN_MOTION":14.80669131,"ECCENTRICITY":0.00027421,"INCLINATION":97.9828,"RA_OF_ASC_NODE":223.0415,"ARG_OF_PERICENTER":32.0271,"MEAN_ANOMALY":328.1107,"EPHEMERIS_TYPE":0,"NORAD_CAT_ID":60079,"ELEMENT_SET_NO":999,"REV_AT_EPOCH":11196,"BSTAR":0.000045698381,"MEAN_MOTION_DOT":0.00000298,"MEAN_MOTION_DDOT":0},{"OBJECT_NAME":"KINEIS-1C","OBJECT_ID":"2024-114C","EPOCH":"2026-07-17T21:38:24.097920","CLASSIFICATION_TYPE":"U","MEAN_MOTION":14.80670949,"ECCENTRICITY":0.00025746,"INCLINATION":97.9842,"RA_OF_ASC_NODE":222.7964,"ARG_OF_PERICENTER":91.5042,"MEAN_ANOMALY":268.6465,"EPHEMERIS_TYPE":0,"NORAD_CAT_ID":60081,"ELEMENT_SET_NO":999,"REV_AT_EPOCH":11192,"BSTAR":0.000047117035,"MEAN_MOTION_DOT":0.00000309,"MEAN_MOTION_DDOT":0},{"OBJECT_NAME":"KINEIS-1D","OBJECT_ID":"2024-114D","EPOCH":"2026-07-17T22:47:40.801920","CLASSIFICATION_TYPE":"U","MEAN_MOTION":14.76364472,"ECCENTRICITY":0.00029723,"INCLINATION":97.9879,"RA_OF_ASC_NODE":218.7501,"ARG_OF_PERICENTER":94.1176,"MEAN_ANOMALY":266.0374,"EPHEMERIS_TYPE":0,"NORAD_CAT_ID":60082,"ELEMENT_SET_NO":999,"REV_AT_EPOCH":11166,"BSTAR":0.000046214948,"MEAN_MOTION_DOT":0.0000027,"MEAN_MOTION_DDOT":0},{"OBJECT_NAME":"KINEIS-1E","OBJECT_ID":"2024-114E","EPOCH":"2026-07-17T23:41:18.953088","CLASSIFICATION_TYPE":"U","MEAN_MOTION":14.80696644,"ECCENTRICITY":0.00041876,"INCLINATION":97.8944,"RA_OF_ASC_NODE":221.9198,"ARG_OF_PERICENTER":103.9476,"MEAN_ANOMALY":256.2202,"EPHEMERIS_TYPE":0,"NORAD_CAT_ID":60083,"ELEMENT_SET_NO":999,"REV_AT_EPOCH":11194,"BSTAR":0.000055050764,"MEAN_MOTION_DOT":0.00000372,"MEAN_MOTION_DDOT":0},{"OBJECT_NAME":"KINEIS-1A","OBJECT_ID":"2024-114F","EPOCH":"2026-07-17T22:52:11.392032","CLASSIFICATION_TYPE":"U","MEAN_MOTION":14.80684426,"ECCENTRICITY":0.00052572,"INCLINATION":97.8918,"RA_OF_ASC_NODE":221.979,"ARG_OF_PERICENTER":55.8103,"MEAN_ANOMALY":304.3607,"EPHEMERIS_TYPE":0,"NORAD_CAT_ID":60084,"ELEMENT_SET_NO":999,"REV_AT_EPOCH":11194,"BSTAR":0.000046233884,"MEAN_MOTION_DOT":0.00000304,"MEAN_MOTION_DDOT":0},{"OBJECT_NAME":"KINEIS-3C","OBJECT_ID":"2024-172A","EPOCH":"2026-07-17T18:59:22.677216","CLASSIFICATION_TYPE":"U","MEAN_MOTION":14.72294303,"ECCENTRICITY":0.00026072,"INCLINATION":98.0435,"RA_OF_ASC_NODE":288.3657,"ARG_OF_PERICENTER":78.6745,"MEAN_ANOMALY":281.4755,"EPHEMERIS_TYPE":0,"NORAD_CAT_ID":61220,"ELEMENT_SET_NO":999,"REV_AT_EPOCH":9757,"BSTAR":0.00013601566,"MEAN_MOTION_DOT":0.0000081,"MEAN_MOTION_DDOT":0},{"OBJECT_NAME":"KINEIS-3D","OBJECT_ID":"2024-172B","EPOCH":"2026-07-17T18:49:41.805696","CLASSIFICATION_TYPE":"U","MEAN_MOTION":14.72291407,"ECCENTRICITY":0.00023867,"INCLINATION":98.0429,"RA_OF_ASC_NODE":288.3693,"ARG_OF_PERICENTER":79.0027,"MEAN_ANOMALY":281.1449,"EPHEMERIS_TYPE":0,"NORAD_CAT_ID":61221,"ELEMENT_SET_NO":999,"REV_AT_EPOCH":9785,"BSTAR":0.000080373291,"MEAN_MOTION_DOT":0.00000458,"MEAN_MOTION_DDOT":0},{"OBJECT_NAME":"KINEIS-3E","OBJECT_ID":"2024-172C","EPOCH":"2026-07-17T13:31:31.368000","CLASSIFICATION_TYPE":"U","MEAN_MOTION":14.72280512,"ECCENTRICITY":0.0001718,"INCLINATION":98.0429,"RA_OF_ASC_NODE":288.1319,"ARG_OF_PERICENTER":87.6653,"MEAN_ANOMALY":272.4751,"EPHEMERIS_TYPE":0,"NORAD_CAT_ID":61222,"ELEMENT_SET_NO":999,"REV_AT_EPOCH":9782,"BSTAR":0.00013483,"MEAN_MOTION_DOT":0.00000802,"MEAN_MOTION_DDOT":0},{"OBJECT_NAME":"KINEIS-3A","OBJECT_ID":"2024-172D","EPOCH":"2026-07-17T19:39:04.205952","CLASSIFICATION_TYPE":"U","MEAN_MOTION":14.72314359,"ECCENTRICITY":0.00020081,"INCLINATION":98.0425,"RA_OF_ASC_NODE":288.4825,"ARG_OF_PERICENTER":37.0376,"MEAN_ANOMALY":323.0969,"EPHEMERIS_TYPE":0,"NORAD_CAT_ID":61223,"ELEMENT_SET_NO":999,"REV_AT_EPOCH":9728,"BSTAR":0.00013692295,"MEAN_MOTION_DOT":0.00000816,"MEAN_MOTION_DDOT":0},{"OBJECT_NAME":"KINEIS-3B","OBJECT_ID":"2024-172E","EPOCH":"2026-07-17T19:14:05.246304","CLASSIFICATION_TYPE":"U","MEAN_MOTION":14.72300391,"ECCENTRICITY":0.00014201,"INCLINATION":98.042,"RA_OF_ASC_NODE":288.4874,"ARG_OF_PERICENTER":22.5405,"MEAN_ANOMALY":337.5864,"EPHEMERIS_TYPE":0,"NORAD_CAT_ID":61224,"ELEMENT_SET_NO":999,"REV_AT_EPOCH":9785,"BSTAR":0.0001314096,"MEAN_MOTION_DOT":0.00000781,"MEAN_MOTION_DDOT":0},{"OBJECT_NAME":"KINEIS-5C","OBJECT_ID":"2024-219A","EPOCH":"2026-07-17T21:56:57.596928","CLASSIFICATION_TYPE":"U","MEAN_MOTION":14.72316574,"ECCENTRICITY":0.00043703,"INCLINATION":97.9071,"RA_OF_ASC_NODE":356.9182,"ARG_OF_PERICENTER":165.1856,"MEAN_ANOMALY":194.948,"EPHEMERIS_TYPE":0,"NORAD_CAT_ID":62081,"ELEMENT_SET_NO":999,"REV_AT_EPOCH":8827,"BSTAR":0.000053257615,"MEAN_MOTION_DOT":0.00000288,"MEAN_MOTION_DDOT":0},{"OBJECT_NAME":"KINEIS-5D","OBJECT_ID":"2024-219B","EPOCH":"2026-07-17T20:56:48.573024","CLASSIFICATION_TYPE":"U","MEAN_MOTION":14.72496172,"ECCENTRICITY":0.0005494,"INCLINATION":97.9183,"RA_OF_ASC_NODE":356.9498,"ARG_OF_PERICENTER":159.8586,"MEAN_ANOMALY":200.2839,"EPHEMERIS_TYPE":0,"NORAD_CAT_ID":62082,"ELEMENT_SET_NO":999,"REV_AT_EPOCH":8827,"BSTAR":0.000074127609,"MEAN_MOTION_DOT":0.00000422,"MEAN_MOTION_DDOT":0},{"OBJECT_NAME":"KINEIS-5E","OBJECT_ID":"2024-219C","EPOCH":"2026-07-17T21:22:59.481408","CLASSIFICATION_TYPE":"U","MEAN_MOTION":14.72301003,"ECCENTRICITY":0.00069691,"INCLINATION":97.9027,"RA_OF_ASC_NODE":356.988,"ARG_OF_PERICENTER":156.6258,"MEAN_ANOMALY":203.5268,"EPHEMERIS_TYPE":0,"NORAD_CAT_ID":62083,"ELEMENT_SET_NO":999,"REV_AT_EPOCH":8828,"BSTAR":0.000050062041,"MEAN_MOTION_DOT":0.00000268,"MEAN_MOTION_DDOT":0},{"OBJECT_NAME":"KINEIS-5A","OBJECT_ID":"2024-219D","EPOCH":"2026-07-17T20:51:41.845248","CLASSIFICATION_TYPE":"U","MEAN_MOTION":14.72267751,"ECCENTRICITY":0.0003996,"INCLINATION":97.8969,"RA_OF_ASC_NODE":357.2445,"ARG_OF_PERICENTER":190.6599,"MEAN_ANOMALY":169.4525,"EPHEMERIS_TYPE":0,"NORAD_CAT_ID":62084,"ELEMENT_SET_NO":999,"REV_AT_EPOCH":8828,"BSTAR":0.000061644716,"MEAN_MOTION_DOT":0.00000341,"MEAN_MOTION_DDOT":0},{"OBJECT_NAME":"KINEIS-5B","OBJECT_ID":"2024-219E","EPOCH":"2026-07-17T21:52:13.715904","CLASSIFICATION_TYPE":"U","MEAN_MOTION":14.78388575,"ECCENTRICITY":0.00026555,"INCLINATION":98.0093,"RA_OF_ASC_NODE":2.5724,"ARG_OF_PERICENTER":140.0869,"MEAN_ANOMALY":220.0538,"EPHEMERIS_TYPE":0,"NORAD_CAT_ID":62085,"ELEMENT_SET_NO":999,"REV_AT_EPOCH":8854,"BSTAR":0.000075143756,"MEAN_MOTION_DOT":0.00000495,"MEAN_MOTION_DDOT":0},{"OBJECT_NAME":"KINEIS-2C","OBJECT_ID":"2025-028B","EPOCH":"2026-07-17T14:37:10.968672","CLASSIFICATION_TYPE":"U","MEAN_MOTION":14.73432814,"ECCENTRICITY":0.0004428,"INCLINATION":98.1229,"RA_OF_ASC_NODE":253.035,"ARG_OF_PERICENTER":153.0544,"MEAN_ANOMALY":207.0894,"EPHEMERIS_TYPE":0,"NORAD_CAT_ID":62929,"ELEMENT_SET_NO":999,"REV_AT_EPOCH":7709,"BSTAR":0.00011195,"MEAN_MOTION_DOT":0.00000675,"MEAN_MOTION_DDOT":0}]}
